{
"type": "FeatureCollection",
"name": "earthquake_result",
"crs": { "type": "name", "properties": { "name": "urn:ogc:def:crs:OGC:1.3:CRS84" } },
"features": [
{ "type": "Feature", "properties": { "latitude": 36.895583, "longitude": 54.751251, "R_epi_km": 18.509932093361712, "R_hyp_km": 21.038478702151018, "vs30_m_s": 298.0, "site_class": 3, "pga_cm_s2": 138.71415361111096, "pga_g": 0.14140076820704481, "log10_pga": 2.142120776297507, "magnitude_term": 3.933, "distance_term": -1.821879223702493, "site_term": 0.054, "sof_term": -0.023, "sigma": 0.267, "magnitude_valid": true, "distance_valid": true, "extrapolated": false, "mmi": 6.1516963798323889, "gmice_model": "Ahmadzadeh_refined" }, "geometry": { "type": "Point", "coordinates": [ 54.751251, 36.895583 ] } },
{ "type": "Feature", "properties": { "latitude": 36.895583, "longitude": 54.752374288860416, "R_epi_km": 18.559047184799308, "R_hyp_km": 21.081703735884517, "vs30_m_s": 298.0, "site_class": 3, "pga_cm_s2": 138.36333911556869, "pga_g": 0.14104315913921375, "log10_pga": 2.1410210342758846, "magnitude_term": 3.933, "distance_term": -1.8229789657241156, "site_term": 0.054, "sof_term": -0.023, "sigma": 0.267, "magnitude_valid": true, "distance_valid": true, "extrapolated": false, "mmi": 6.1498620902263958, "gmice_model": "Ahmadzadeh_refined" }, "geometry": { "type": "Point", "coordinates": [ 54.752374288860416, 36.895583 ] } },
{ "type": "Feature", "properties": { "latitude": 36.895583, "longitude": 54.753497577720829, "R_epi_km": 18.608572371832505, "R_hyp_km": 21.125315754272833, "vs30_m_s": 298.0, "site_class": 3, "pga_cm_s2": 138.01087803543999, "pga_g": 0.1406838715957594, "log10_pga": 2.13991331889817, "magnitude_term": 3.933, "distance_term": -1.8240866811018301, "site_term": 0.054, "sof_term": -0.023, "sigma": 0.267, "magnitude_valid": true, "distance_valid": true, "extrapolated": false, "mmi": 6.1480148308704079, "gmice_model": "Ahmadzadeh_refined" }, "geometry": { "type": "Point", "coordinates": [ 54.753497577720829, 36.895583 ] } },
{ "type": "Feature", "properties": { "latitude": 36.895583, "longitude": 54.754620866581242, "R_epi_km": 18.658504388909051, "R_hyp_km": 21.169312365566775, "vs30_m_s": 309.0, "site_class": 3, "pga_cm_s2": 137.65682079337239, "pga_g": 0.14032295697591476, "log10_pga": 2.13879773523196, "magnitude_term": 3.933, "distance_term": -1.8252022647680397, "site_term": 0.054, "sof_term": -0.023, "sigma": 0.267, "magnitude_valid": true, "distance_valid": true, "extrapolated": false, "mmi": 6.1461547853189726, "gmice_model": "Ahmadzadeh_refined" }, "geometry": { "type": "Point", "coordinates": [ 54.754620866581242, 36.895583 ] } },
{ "type": "Feature", "properties": { "latitude": 36.896481311174995, "longitude": 54.751251, "R_epi_km": 18.596982825961081, "R_hyp_km": 21.115107630061736, "vs30_m_s": 292.0, "site_class": 3, "pga_cm_s2": 138.0932433799002, "pga_g": 0.14076783219153946, "log10_pga": 2.1401724299572651, "magnitude_term": 3.933, "distance_term": -1.8238275700427349, "site_term": 0.054, "sof_term": -0.023, "sigma": 0.267, "magnitude_valid": true, "distance_valid": true, "extrapolated": false, "mmi": 6.1484469025665449, "gmice_model": "Ahmadzadeh_refined" }, "geometry": { "type": "Point", "coordinates": [ 54.751251, 36.896481311174995 ] } },
{ "type": "Feature", "properties": { "latitude": 36.896481311174995, "longitude": 54.752374288860416, "R_epi_km": 18.645868046916924, "R_hyp_km": 21.158175611877258, "vs30_m_s": 292.0, "site_class": 3, "pga_cm_s2": 137.74629935808912, "pga_g": 0.14041416856074324, "log10_pga": 2.1390799400831693, "magnitude_term": 3.933, "distance_term": -1.8249200599168307, "site_term": 0.054, "sof_term": -0.023, "sigma": 0.267, "magnitude_valid": true, "distance_valid": true, "extrapolated": false, "mmi": 6.1466252819375811, "gmice_model": "Ahmadzadeh_refined" }, "geometry": { "type": "Point", "coordinates": [ 54.752374288860416, 36.896481311174995 ] } },
{ "type": "Feature", "properties": { "latitude": 36.896481311174995, "longitude": 54.753497577720829, "R_epi_km": 18.695162662707894, "R_hyp_km": 21.201629819075404, "vs30_m_s": 292.0, "site_class": 3, "pga_cm_s2": 137.39771248680739, "pga_g": 0.14005883026178123, "log10_pga": 2.1379795022822892, "magnitude_term": 3.933, "distance_term": -1.8260204977177108, "site_term": 0.054, "sof_term": -0.023, "sigma": 0.267, "magnitude_valid": true, "distance_valid": true, "extrapolated": false, "mmi": 6.1447907359647074, "gmice_model": "Ahmadzadeh_refined" }, "geometry": { "type": "Point", "coordinates": [ 54.753497577720829, 36.896481311174995 ] } },
{ "type": "Feature", "properties": { "latitude": 36.896481311174995, "longitude": 54.754620866581242, "R_epi_km": 18.744863443492733, "R_hyp_km": 21.245467881766931, "vs30_m_s": 295.0, "site_class": 3, "pga_cm_s2": 137.04753245148092, "pga_g": 0.13970186794238626, "log10_pga": 2.1368712204493727, "magnitude_term": 3.933, "distance_term": -1.827128779550627, "site_term": 0.054, "sof_term": -0.023, "sigma": 0.267, "magnitude_valid": true, "distance_valid": true, "extrapolated": false, "mmi": 6.1429434461544155, "gmice_model": "Ahmadzadeh_refined" }, "geometry": { "type": "Point", "coordinates": [ 54.754620866581242, 36.896481311174995 ] } },
{ "type": "Feature", "properties": { "latitude": 36.897379622349987, "longitude": 54.751251, "R_epi_km": 18.684159903834566, "R_hyp_km": 21.191928447219222, "vs30_m_s": 292.0, "site_class": 3, "pga_cm_s2": 137.47540880836877, "pga_g": 0.14013803140506501, "log10_pga": 2.138225019810216, "magnitude_term": 3.933, "distance_term": -1.8257749801897842, "site_term": 0.054, "sof_term": -0.023, "sigma": 0.267, "magnitude_valid": true, "distance_valid": true, "extrapolated": false, "mmi": 6.145200011090477, "gmice_model": "Ahmadzadeh_refined" }, "geometry": { "type": "Point", "coordinates": [ 54.751251, 36.897379622349987 ] } },
{ "type": "Feature", "properties": { "latitude": 36.897379622349987, "longitude": 54.752374288860416, "R_epi_km": 18.732817059717199, "R_hyp_km": 21.234840121668721, "vs30_m_s": 292.0, "site_class": 3, "pga_cm_s2": 137.13229077764834, "pga_g": 0.1397882678671237, "log10_pga": 2.1371397309042188, "magnitude_term": 3.933, "distance_term": -1.8268602690957811, "site_term": 0.054, "sof_term": -0.023, "sigma": 0.267, "magnitude_valid": true, "distance_valid": true, "extrapolated": false, "mmi": 6.143390970008868, "gmice_model": "Ahmadzadeh_refined" }, "geometry": { "type": "Point", "coordinates": [ 54.752374288860416, 36.897379622349987 ] } },
{ "type": "Feature", "properties": { "latitude": 36.897379622349987, "longitude": 54.753497577720829, "R_epi_km": 18.781882898331936, "R_hyp_km": 21.278137258854535, "vs30_m_s": 292.0, "site_class": 3, "pga_cm_s2": 136.78753384183156, "pga_g": 0.13943683368178547, "log10_pga": 2.136046519676511, "magnitude_term": 3.933, "distance_term": -1.8279534803234889, "site_term": 0.054, "sof_term": -0.023, "sigma": 0.267, "magnitude_valid": true, "distance_valid": true, "extrapolated": false, "mmi": 6.1415690482984688, "gmice_model": "Ahmadzadeh_refined" }, "geometry": { "type": "Point", "coordinates": [ 54.753497577720829, 36.897379622349987 ] } },
{ "type": "Feature", "properties": { "latitude": 36.897379622349987, "longitude": 54.754620866581242, "R_epi_km": 18.831354225154566, "R_hyp_km": 21.321817510551174, "vs30_m_s": 295.0, "site_class": 3, "pga_cm_s2": 136.44118695893712, "pga_g": 0.1390837787552876, "log10_pga": 2.1349454888610881, "magnitude_term": 3.933, "distance_term": -1.8290545111389118, "site_term": 0.054, "sof_term": -0.023, "sigma": 0.267, "magnitude_valid": true, "distance_valid": true, "extrapolated": false, "mmi": 6.1397344254387463, "gmice_model": "Ahmadzadeh_refined" }, "geometry": { "type": "Point", "coordinates": [ 54.754620866581242, 36.897379622349987 ] } },
{ "type": "Feature", "properties": { "latitude": 36.89827793352498, "longitude": 54.751251, "R_epi_km": 18.771461566932164, "R_hyp_km": 21.268939074594467, "vs30_m_s": 292.0, "site_class": 3, "pga_cm_s2": 136.86065425924295, "pga_g": 0.13951137029484501, "log10_pga": 2.1362786118001416, "magnitude_term": 3.933, "distance_term": -1.8277213881998584, "site_term": 0.054, "sof_term": -0.023, "sigma": 0.267, "magnitude_valid": true, "distance_valid": true, "extrapolated": false, "mmi": 6.1419558205859239, "gmice_model": "Ahmadzadeh_refined" }, "geometry": { "type": "Point", "coordinates": [ 54.751251, 36.89827793352498 ] } },
{ "type": "Feature", "properties": { "latitude": 36.89827793352498, "longitude": 54.752374288860416, "R_epi_km": 18.819892447251583, "R_hyp_km": 21.311695186589855, "vs30_m_s": 292.0, "site_class": 3, "pga_cm_s2": 136.52131813932778, "pga_g": 0.13916546191572657, "log10_pga": 2.1352004728227807, "magnitude_term": 3.933, "distance_term": -1.8287995271772193, "site_term": 0.054, "sof_term": -0.023, "sigma": 0.267, "magnitude_valid": true, "distance_valid": true, "extrapolated": false, "mmi": 6.1401592698700176, "gmice_model": "Ahmadzadeh_refined" }, "geometry": { "type": "Point", "coordinates": [ 54.752374288860416, 36.89827793352498 ] } },
{ "type": "Feature", "properties": { "latitude": 36.89827793352498, "longitude": 54.753497577720829, "R_epi_km": 18.868731287272656, "R_hyp_km": 21.354835995420384, "vs30_m_s": 292.0, "site_class": 3, "pga_cm_s2": 136.18034726083664, "pga_g": 0.13881788711604143, "log10_pga": 2.1341144372976983, "magnitude_term": 3.933, "distance_term": -1.8298855627023016, "site_term": 0.054, "sof_term": -0.023, "sigma": 0.267, "magnitude_valid": true, "distance_valid": true, "extrapolated": false, "mmi": 6.1383498835373027, "gmice_model": "Ahmadzadeh_refined" }, "geometry": { "type": "Point", "coordinates": [ 54.753497577720829, 36.89827793352498 ] } },
{ "type": "Feature", "properties": { "latitude": 36.89827793352498, "longitude": 54.754620866581242, "R_epi_km": 18.917974927411947, "R_hyp_km": 21.39835917434295, "vs30_m_s": 295.0, "site_class": 3, "pga_cm_s2": 135.83778986400972, "pga_g": 0.13846869507034631, "log10_pga": 2.1330206068098203, "magnitude_term": 3.933, "distance_term": -1.8309793931901799, "site_term": 0.054, "sof_term": -0.023, "sigma": 0.267, "magnitude_valid": true, "distance_valid": true, "extrapolated": false, "mmi": 6.1365278390606051, "gmice_model": "Ahmadzadeh_refined" }, "geometry": { "type": "Point", "coordinates": [ 54.754620866581242, 36.89827793352498 ] } },
{ "type": "Feature", "properties": { "latitude": 36.899176244699973, "longitude": 54.751251, "R_epi_km": 18.858886085299183, "R_hyp_km": 21.34613745805763, "vs30_m_s": 292.0, "site_class": 3, "pga_cm_s2": 136.24898337295988, "pga_g": 0.13888785257182454, "log10_pga": 2.1343332704557563, "magnitude_term": 3.933, "distance_term": -1.8296667295442435, "site_term": 0.054, "sof_term": -0.023, "sigma": 0.267, "magnitude_valid": true, "distance_valid": true, "extrapolated": false, "mmi": 6.1387144437681149, "gmice_model": "Ahmadzadeh_refined" }, "geometry": { "type": "Point", "coordinates": [ 54.751251, 36.899176244699973 ] } },
{ "type": "Feature", "properties": { "latitude": 36.899176244699973, "longitude": 54.752374288860416, "R_epi_km": 18.907092463725164, "R_hyp_km": 21.388738752714076, "vs30_m_s": 292.0, "site_class": 3, "pga_cm_s2": 135.91338548773277, "pga_g": 0.13854575482949313, "log10_pga": 2.13326223051609, "magnitude_term": 3.933, "distance_term": -1.8307377694839102, "site_term": 0.054, "sof_term": -0.023, "sigma": 0.267, "magnitude_valid": true, "distance_valid": true, "extrapolated": false, "mmi": 6.1369302944989004, "gmice_model": "Ahmadzadeh_refined" }, "geometry": { "type": "Point", "coordinates": [ 54.752374288860416, 36.899176244699973 ] } },
{ "type": "Feature", "properties": { "latitude": 36.899176244699973, "longitude": 54.753497577720829, "R_epi_km": 18.955706068309983, "R_hyp_km": 21.431723975176702, "vs30_m_s": 292.0, "site_class": 3, "pga_cm_s2": 135.57615718555138, "pga_g": 0.13820199509230519, "log10_pga": 2.1321833199646179, "magnitude_term": 3.933, "distance_term": -1.8318166800353819, "site_term": 0.054, "sof_term": -0.023, "sigma": 0.267, "magnitude_valid": true, "distance_valid": true, "extrapolated": false, "mmi": 6.1351333549093834, "gmice_model": "Ahmadzadeh_refined" }, "geometry": { "type": "Point", "coordinates": [ 54.753497577720829, 36.899176244699973 ] } },
{ "type": "Feature", "properties": { "latitude": 36.899176244699973, "longitude": 54.754620866581242, "R_epi_km": 19.004723774024562, "R_hyp_km": 21.475090819993625, "vs30_m_s": 295.0, "site_class": 3, "pga_cm_s2": 135.2373459985173, "pga_g": 0.1378566218129636, "log10_pga": 2.131096639249094, "magnitude_term": 3.933, "distance_term": -1.8329033607509062, "site_term": 0.054, "sof_term": -0.023, "sigma": 0.267, "magnitude_valid": true, "distance_valid": true, "extrapolated": false, "mmi": 6.1333238004864423, "gmice_model": "Ahmadzadeh_refined" }, "geometry": { "type": "Point", "coordinates": [ 54.754620866581242, 36.899176244699973 ] } }
]
}
